[{"OBJECT_NAME":"REIMEI (INDEX)","OBJECT_ID":"2005-031B","EPOCH":"2026-03-09T21:15:47.083968","MEAN_MOTION":15.09838737,"ECCENTRICITY":0.00209792,"INCLINATION":97.9988,"RA_OF_ASC_NODE":188.389,"ARG_OF_PERICENTER":89.5619,"MEAN_ANOMALY":270.8013,"EPHEMERIS_TYPE":0,"CLASSIFICATION_TYPE":"U","NORAD_CAT_ID":28810,"ELEMENT_SET_NO":999,"REV_AT_EPOCH":11600,"BSTAR":0.00050498736,"MEAN_MOTION_DOT":8.144e-5,"MEAN_MOTION_DDOT":0},{"OBJECT_NAME":"STARLINK-5439","OBJECT_ID":"2022-175AB","EPOCH":"2026-03-09T21:56:38.223456","MEAN_MOTION":15.08830949,"ECCENTRICITY":0.00013224,"INCLINATION":53.2182,"RA_OF_ASC_NODE":28.0943,"ARG_OF_PERICENTER":93.3813,"MEAN_ANOMALY":266.7331,"EPHEMERIS_TYPE":0,"CLASSIFICATION_TYPE":"U","NORAD_CAT_ID":54783,"ELEMENT_SET_NO":999,"REV_AT_EPOCH":18016,"BSTAR":-2.0345e-7,"MEAN_MOTION_DOT":-2.91e-6,"MEAN_MOTION_DDOT":0}]
